NORAD_CAT_ID,OBJECT_NAME,OBJECT_TYPE,EPOCH,MEAN_MOTION,ECCENTRICITY,INCLINATION,RA_OF_ASC_NODE,ARG_OF_PERICENTER,MEAN_ANOMALY,BSTAR,MEAN_MOTION_DOT,MEAN_MOTION_DDOT,TLE_LINE0,TLE_LINE1,TLE_LINE2,SEMIMAJOR_AXIS,PERIOD,APOGEE,PERIGEE,DECAYED
53933.0,STARLINK-4782,PAYLOAD,2022-12-14 23:44:45,15.73343635,0.0004516,53.2111,211.9928,3.3232,356.7817,-0.00058023,-0.00081825,0.0,0 STARLINK-4782,1 53933U 22119AZ  22348.98941649 -.00081825  00000-0 -58023-3 0  9994,2 53933  53.2111 211.9928 0004516   3.3232 356.7817 15.73343635 13189,6727.486,91.525,352.389,346.31300000000016,0.0
53933.0,STARLINK-4782,PAYLOAD,2022-12-15 11:56:53,15.72068665,0.0008033999999999,53.2121,209.4781,39.171,320.9890000000001,-0.0062736,-0.00769408,0.0,0 STARLINK-4782,1 53933U 22119AZ  22349.49783950 -.00769408  00000-0 -62736-2 0  9995,2 53933  53.2121 209.4781 0008034  39.1710 320.9890 15.72068665 13692,6731.123000000001,91.599,358.395,347.58,0.0
53933.0,STARLINK-4782,PAYLOAD,2022-12-15 22:00:00,15.73101218,0.0002833999999999,53.2169,207.3833,315.4656,258.2338,-0.0071607,-0.00900666,0.0,0 STARLINK-4782,1 53933U 22119AZ  22349.91667824 -.00900666  00000-0 -71607-2 0  9993,2 53933  53.2169 207.3833 0002834 315.4656 258.2338 15.73101218 13334,6728.177,91.539,351.949,348.135,0.0
53933.0,STARLINK-4782,PAYLOAD,2022-12-16 03:11:45,15.72897651,0.0003115,53.2127,206.3336,340.1684,19.9214,-0.0012286,-0.00167541,0.0,0 STARLINK-4782,1 53933U 22119AZ  22350.13316167 -.00167541  00000-0 -12286-2 0  9995,2 53933  53.2127 206.3336 0003115 340.1684  19.9214 15.72897651 13364,6728.757,91.551,352.718,348.526,0.0
53933.0,STARLINK-4782,PAYLOAD,2022-12-16 07:46:19,15.7266374,0.000321,53.2129,205.3915,348.3452,11.7493,-0.001801,-0.00240803,0.0,0 STARLINK-4782,1 53933U 22119AZ  22350.32383655 -.00240803  00000-0 -18010-2 0  9996,2 53933  53.2129 205.3915 0003210 348.3452  11.7493 15.72663740 13399,6729.425,91.564,353.45,349.129,0.0
53933.0,STARLINK-4782,PAYLOAD,2022-12-16 13:52:30,15.72285345,0.0002952,53.2128,204.1352,305.5087,54.5657,-0.0025204,-0.00327969,0.0,0 STARLINK-4782,1 53933U 22119AZ  22350.57812616 -.00327969  00000-0 -25204-2 0  9999,2 53933  53.2128 204.1352 0002952 305.5087  54.5657 15.72285345 13861,6730.504,91.586,354.356,350.38199999999995,0.0
53933.0,STARLINK-4782,PAYLOAD,2022-12-16 15:23:38,15.73637359,0.0008868999999999,53.2128,203.819,242.2269,117.7853,0.0036541,0.00558711,0.0,0 STARLINK-4782,1 53933U 22119AZ  22350.64141673  .00558711  00000-0  36541-2 0  9990,2 53933  53.2128 203.8190 0008869 242.2269 117.7853 15.73637359 13440,6726.649,91.508,354.47900000000016,342.548,0.0
53933.0,STARLINK-4782,PAYLOAD,2022-12-17 06:00:00,15.70004998,0.0003071,53.2173,200.7979,270.3105,291.4397,-0.010309,-0.01128319,0.0,0 STARLINK-4782,1 53933U 22119AZ  22351.25001157 -.01128319  00000-0 -10309-1 0  9993,2 53933  53.2173 200.7979 0003071 270.3105 291.4397 15.70004998 13540,6737.02,91.719,360.954,356.816,0.0
53933.0,STARLINK-4782,PAYLOAD,2022-12-17 14:00:01,15.69153259,0.0005386,53.2167,199.1592,267.8345,18.5809,-0.010045,-0.0106903,0.0,0 STARLINK-4782,1 53933U 22119AZ  22351.58335648 -.01069030  00000-0 -10045-1 0  9995,2 53933  53.2167 199.1592 0005386 267.8345  18.5809 15.69153259  1303,6739.456999999999,91.769,364.952,357.6930000000001,0.0
53933.0,STARLINK-4782,PAYLOAD,2022-12-17 22:00:00,15.68320553,0.0001723,53.2174,197.5207,256.3848,113.5838,-0.010156,-0.01044805,0.0,0 STARLINK-4782,1 53933U 22119AZ  22351.91667824 -.01044805  00000-0 -10156-1 0  9992,2 53933  53.2174 197.5207 0001723 256.3848 113.5838 15.68320553  1308,6741.843000000003,91.818,364.869,362.546,0.0
53933.0,STARLINK-4782,PAYLOAD,2022-12-18 06:00:02,15.67565316,7.45e-05,53.2175,195.8814,144.4988,308.1423,-0.011402,-0.01145274,0.0,0 STARLINK-4782,1 53933U 22119AZ  22352.25002315 -.01145274  00000-0 -11402-1 0  9995,2 53933  53.2175 195.8814 0000745 144.4988 308.1423 15.67565316 13705,6744.0080000000025,91.862,366.375,365.371,0.0
53933.0,STARLINK-4782,PAYLOAD,2022-12-18 14:00:01,15.66746431,0.0001449,53.2177,194.2459,125.3409,48.8894,-0.011683,-0.01136045,0.0,0 STARLINK-4782,1 53933U 22119AZ  22352.58334491 -.01136045  00000-0 -11683-1 0  9991,2 53933  53.2177 194.2459 0001449 125.3409  48.8894 15.66746431  1304,6746.358,91.91,369.2,367.245,0.0
53933.0,STARLINK-4782,PAYLOAD,2022-12-18 22:00:00,15.65933241,0.0001298,53.2176,192.6151,62.0117,192.8926,-0.012095,-0.0113766,0.0,0 STARLINK-4782,1 53933U 22119AZ  22352.91667824 -.01137660  00000-0 -12095-1 0  9999,2 53933  53.2176 192.6151 0001298  62.0117 192.8926 15.65933241  1301,6748.693,91.958,371.434,369.682,0.0
53933.0,STARLINK-4782,PAYLOAD,2022-12-19 04:00:00,15.65323922,0.0001371,53.2172,191.391,53.7696,170.9998,-0.012419,-0.01139576,0.0,0 STARLINK-4782,1 53933U 22119AZ  22353.16667824 -.01139576  00000-0 -12419-1 0  9995,2 53933  53.2172 191.3910 0001371  53.7696 170.9998 15.65323922 13844,6750.444,91.994,373.235,371.384,0.0
53933.0,STARLINK-4782,PAYLOAD,2022-12-19 10:00:00,15.64710739,0.0001344,53.2172,190.1674,55.7913,138.2943,-0.01266,-0.01133988,0.0,0 STARLINK-4782,1 53933U 22119AZ  22353.41667824 -.01133988  00000-0 -12660-1 0  9992,2 53933  53.2172 190.1674 0001344  55.7913 138.2943 15.64710739  1302,6752.208000000001,92.03,374.98,373.165,0.0
53933.0,STARLINK-4782,PAYLOAD,2022-12-19 22:00:00,15.63490574,0.0001478,53.2175,187.7286,48.8301,82.23299999999998,-0.013293,-0.01134192,0.0,0 STARLINK-4782,1 53933U 22119AZ  22353.91667824 -.01134192  00000-0 -13293-1 0  9998,2 53933  53.2175 187.7286 0001478  48.8301  82.2330 15.63490574 13962,6755.72,92.102,378.584,376.587,0.0
53933.0,STARLINK-4782,PAYLOAD,2022-12-20 14:00:01,15.61871153,0.0001293,53.2168,184.4794,54.7649,228.8447,-0.014309,-0.01144299,0.0,0 STARLINK-4782,1 53933U 22119AZ  22354.58334491 -.01144299  00000-0 -14309-1 0  9991,2 53933  53.2168 184.4794 0001293  54.7649 228.8447 15.61871153  1304,6760.389,92.197,383.128,381.38,0.0
53933.0,STARLINK-4782,PAYLOAD,2022-12-21 14:00:01,15.59420705,0.0001522,53.2177,179.622,47.5707,97.5342,-0.01553,-0.01130937,0.0,0 STARLINK-4782,1 53933U 22119AZ  22355.58334491 -.01130937  00000-0 -15530-1 0  9993,2 53933  53.2177 179.6220 0001522  47.5707  97.5342 15.59420705 14224,6767.47,92.342,390.365,388.305,0.0
53933.0,STARLINK-4782,PAYLOAD,2022-12-22 06:00:00,15.57796375,0.0001112,53.2174,176.394,81.1218,206.753,-0.016604,-0.01135898,0.0,0 STARLINK-4782,1 53933U 22119AZ  22356.25001157 -.01135898  00000-0 -16604-1 0  9992,2 53933  53.2174 176.3940 0001112  81.1218 206.7530 15.57796375 14321,6772.1730000000025,92.438,394.791,393.285,0.0
53933.0,STARLINK-4782,PAYLOAD,2022-12-22 14:00:01,15.56982017,0.0001142,53.2175,174.7827,60.6698,297.124,-0.0170939999999999,-0.01134211,0.0,0 STARLINK-4782,1 53933U 22119AZ  22356.58334491 -.01134211  00000-0 -17094-1 0  9990,2 53933  53.2175 174.7827 0001142  60.6698 297.1240 15.56982017  1300,6774.534000000002,92.487,397.173,395.626,0.0
53933.0,STARLINK-4782,PAYLOAD,2022-12-22 22:00:00,15.56164616,0.000129,53.2174,173.1754,51.8408,14.8944,-0.017531,-0.0112872,0.0,0 STARLINK-4782,1 53933U 22119AZ  22356.91667824 -.01128720  00000-0 -17531-1 0  9990,2 53933  53.2174 173.1754 0001290  51.8408  14.8944 15.56164616  1308,6776.906,92.535,399.646,397.897,0.0
53933.0,STARLINK-4782,PAYLOAD,2022-12-23 06:00:00,15.55351943,0.0001244,53.2175,171.5664,67.4488,67.25,-0.018087,-0.01129665,0.0,0 STARLINK-4782,1 53933U 22119AZ  22357.25001157 -.01129665  00000-0 -18087-1 0  9995,2 53933  53.2175 171.5664 0001244  67.4488  67.2500 15.55351943 14484,6779.267,92.584,401.975,400.288,0.0
53933.0,STARLINK-4782,PAYLOAD,2022-12-23 14:00:01,15.54557063,0.0001353,53.2164,169.9617,55.3698,146.3047,-0.019086,-0.01154793,0.0,0 STARLINK-4782,1 53933U 22119AZ  22357.58334491 -.01154793  00000-0 -19086-1 0  9991,2 53933  53.2164 169.9617 0001353  55.3698 146.3047 15.54557063  1303,6781.5769999999975,92.631,404.36,402.525,0.0
53933.0,STARLINK-4782,PAYLOAD,2022-12-23 22:00:01,15.53752784,0.0001226,53.2167,168.3602,57.4847,210.2559,-0.019884,-0.01166625,0.0,0 STARLINK-4782,1 53933U 22119AZ  22357.91668981 -.01166625  00000-0 -19884-1 0  9995,2 53933  53.2167 168.3602 0001226  57.4847 210.2559 15.53752784 14580,6783.918000000002,92.679,406.614,404.951,0.0
53933.0,STARLINK-4782,PAYLOAD,2022-12-24 14:00:01,15.52109283,0.0001469,53.2165,165.1577,45.3836,351.3831,-0.02071,-0.01146638,0.0,0 STARLINK-4782,1 53933U 22119AZ  22358.58334491 -.01146638  00000-0 -20710-1 0  9997,2 53933  53.2165 165.1577 0001469  45.3836 351.3831 15.52109283  1302,6788.706,92.777,411.568,409.573,0.0
53933.0,STARLINK-4782,PAYLOAD,2022-12-24 22:00:00,15.51308671,0.000137,53.2165,163.5622,48.5155,51.3175,-0.021695,-0.01182509,0.0,0 STARLINK-4782,1 53933U 22119AZ  22358.91667824 -.01182509  00000-0 -21695-1 0  9993,2 53933  53.2165 163.5622 0001370  48.5155  51.3175 15.51308671  1304,6791.041,92.825,413.837,411.976,0.0
53933.0,STARLINK-4782,PAYLOAD,2022-12-25 06:00:00,15.50338249,0.0001588,53.217,161.9644,47.0194,114.9384,-0.01017,-0.00547801,0.0,0 STARLINK-4782,1 53933U 22119AZ  22359.25001157 -.00547801  00000-0 -10170-1 0  9997,2 53933  53.2170 161.9644 0001588  47.0194 114.9384 15.50338249 14792,6793.875,92.883,416.819,414.661,0.0
53933.0,STARLINK-4782,PAYLOAD,2022-12-25 14:00:01,15.49806583,0.0001008,53.2135,160.3745,33.9187,189.1366,0.0013421,0.00076253,0.0,0 STARLINK-4782,1 53933U 22119AZ  22359.58334491  .00076253  00000-0  13421-2 0  9992,2 53933  53.2135 160.3745 0001008  33.9187 189.1366 15.49806583  1307,6795.428000000001,92.915,417.978,416.608,0.0
53933.0,STARLINK-4782,PAYLOAD,2022-12-25 22:00:00,15.49874938,0.0001274,53.2133,158.7836,32.2262,251.6783,0.0011195,0.00063581,0.0,0 STARLINK-4782,1 53933U 22119AZ  22359.91667824  .00063581  00000-0  11195-2 0  9994,2 53933  53.2133 158.7836 0001274  32.2262 251.6783 15.49874938 14893,6795.229,92.911,417.959,416.228,0.0
